{
    "links": {
        "self": "http://www.neowsapp.com/rest/v1/neo/3802555?api_key=iIulBulltgU6a56xZRHN4H3l9WmuAYTsLGpBGhQ2"
    },
    "id": "3802555",
    "neo_reference_id": "3802555",
    "name": "(2018 FL29)",
    "designation": "2018 FL29",
    "nasa_jpl_url": "http://ssd.jpl.nasa.gov/sbdb.cgi?sstr=3802555",
    "absolute_magnitude_h": 30.077,
    "estimated_diameter": {
        "kilometers": {
            "estimated_diameter_min": 0.0025653993,
            "estimated_diameter_max": 0.0057364073
        },
        "meters": {
            "estimated_diameter_min": 2.5653993278,
            "estimated_diameter_max": 5.7364072864
        },
        "miles": {
            "estimated_diameter_min": 0.0015940647,
            "estimated_diameter_max": 0.0035644371
        },
        "feet": {
            "estimated_diameter_min": 8.4166647306,
            "estimated_diameter_max": 18.8202344815
        }
    },
    "is_potentially_hazardous_asteroid": false,
    "close_approach_data": [
        {
            "close_approach_date": "2018-03-17",
            "close_approach_date_full": "2018-Mar-17 14:53",
            "epoch_date_close_approach": 1521298380000,
            "relative_velocity": {
                "kilometers_per_second": "12.2549946319",
                "kilometers_per_hour": "44117.9806747615",
                "miles_per_hour": "27413.1974920483"
            },
            "miss_distance": {
                "astronomical": "0.0018651799",
                "lunar": "0.7255549811",
                "kilometers": "279026.940206813",
                "miles": "173379.3009394994"
            },
            "orbiting_body": "Moon"
        },
        {
            "close_approach_date": "2018-03-17",
            "close_approach_date_full": "2018-Mar-17 23:18",
            "epoch_date_close_approach": 1521328680000,
            "relative_velocity": {
                "kilometers_per_second": "12.0433718716",
                "kilometers_per_hour": "43356.1387378025",
                "miles_per_hour": "26939.8185396084"
            },
            "miss_distance": {
                "astronomical": "0.0014841165",
                "lunar": "0.5773213185",
                "kilometers": "222020.667231855",
                "miles": "137957.245455399"
            },
            "orbiting_body": "Earth"
        },
        {
            "close_approach_date": "2187-07-11",
            "close_approach_date_full": "2187-Jul-11 09:25",
            "epoch_date_close_approach": 6864427500000,
            "relative_velocity": {
                "kilometers_per_second": "5.474943246",
                "kilometers_per_hour": "19709.7956855747",
                "miles_per_hour": "12246.9005469617"
            },
            "miss_distance": {
                "astronomical": "0.1117369152",
                "lunar": "43.4656600128",
                "kilometers": "16715604.514290624",
                "miles": "10386595.0123696512"
            },
            "orbiting_body": "Venus"
        }
    ],
    "orbital_data": {
        "orbit_id": "1",
        "orbit_determination_date": "2018-04-14 06:48:17",
        "first_observation_date": "2018-03-19",
        "last_observation_date": "2018-03-20",
        "data_arc_in_days": 1,
        "observations_used": 10,
        "orbit_uncertainty": "9",
        "minimum_orbit_intersection": ".000183988",
        "jupiter_tisserand_invariant": "4.050",
        "epoch_osculation": "2458197.5",
        "eccentricity": ".5126722948788223",
        "semi_major_axis": "1.694786844286046",
        "inclination": ".1026456313526823",
        "ascending_node_longitude": "53.26516426560659",
        "orbital_period": "805.8812531480114",
        "perihelion_distance": ".8259165834954815",
        "perihelion_argument": "63.64049841587372",
        "aphelion_distance": "2.56365710507661",
        "perihelion_time": "2458153.027064620117",
        "mean_anomaly": "19.86676904843867",
        "mean_motion": ".4467159381034528",
        "equinox": "J2000",
        "orbit_class": {
            "orbit_class_type": "APO",
            "orbit_class_description": "Near-Earth asteroid orbits which cross the Earth’s orbit similar to that of 1862 Apollo",
            "orbit_class_range": "a (semi-major axis) > 1.0 AU; q (perihelion) < 1.017 AU"
        }
    },
    "is_sentry_object": false
}